SL-3 R/B                
1 13403U 82079B   26009.26110268  .00006429  00000+0  26214-3 0  9998
2 13403  81.1459 263.2139 0025796  10.0308 350.1434 15.23978217368640
SL-14 R/B               
1 13553U 82092B   26009.29885565  .00000619  00000+0  66799-4 0  9999
2 13553  82.5667 196.9364 0021379 135.3128  37.9035 14.86589017320108
SL-3 R/B                
1 13819U 83010B   26009.25263562  .00015865  00000+0  34158-3 0  9990
2 13819  81.1034  75.0145 0016180 251.8944 108.0537 15.44345827348767
SL-3 R/B                
1 14208U 83075B   26009.27102034  .00013276  00000+0  36748-3 0  9993
2 14208  97.6119  11.6920 0024529  83.0012 277.4020 15.36816638321022
COSMOS 1536             
1 14699U 84013A   26008.94656888  .00006103  00000+0  25787-3 0  9996
2 14699  82.5459 167.1751 0015414 129.7301 230.5297 15.22937857263525
SL-14 R/B               
1 14820U 84027B   26009.30021277  .00000582  00000+0  63789-4 0  9996
2 14820  82.5432 300.7125 0018257 165.2475 194.9279 14.85910484238819
SL-8 R/B                
1 15483U 85006B   26009.29632000  .00000330  00000+0  11817-3 0  9995
2 15483  74.0459  10.4315 0019695 297.7753  73.9901 14.37742640145496
SL-12 R/B(2)            
1 15772U 85042D   26008.97869343  .00000118  00000+0  74579-4 0  9991
2 15772  71.1064 213.8757 0036719 221.3594 243.0938 14.21960741105907
SL-14 R/B               
1 15945U 85069B   26009.23573153  .00000534  00000+0  57602-4 0  9993
2 15945  82.5264  80.8534 0019588  33.4784 326.7666 14.86360755164003
SL-16 R/B               
1 16182U 85097B   26009.11681360  .00000247  00000+0  14794-3 0  9990
2 16182  71.0030 265.9687 0008317 331.6705 140.2260 14.16590782 78797
SL-14 R/B               
1 16496U 86006B   26009.29525636  .00000789  00000+0  80964-4 0  9995
2 16496  82.5286 315.6251 0078203 109.1723 251.7979 14.86714961140388
COSMOS 1743             
1 16719U 86034A   26008.90972586  .00032603  00000+0  50158-3 0  9992
2 16719  82.5355 136.3350 0005173 148.1659 211.9908 15.54047281170954
