CCSDS_OMM_VERS = 2.0
CREATION_DATE  = 
ORIGINATOR     = 

OBJECT_NAME    = SL-3 R/B
OBJECT_ID      = 1982-079B
CENTER_NAME    = EARTH
REF_FRAME      = TEME
TIME_SYSTEM    = UTC
MEAN_ELEMENT_THEORY = SGP/SGP4

EPOCH          = 2026-01-09T06:15:59.271552
MEAN_MOTION    = 15.23978217
ECCENTRICITY   = .00257965
INCLINATION    = 81.1459
RA_OF_ASC_NODE = 263.2139
ARG_OF_PERICENTER = 10.0308
MEAN_ANOMALY   = 350.1434

EPHEMERIS_TYPE = 0
CLASSIFICATION_TYPE = U
NORAD_CAT_ID   = 13403
ELEMENT_SET_NO = 999
REV_AT_EPOCH   = 36864
BSTAR          = .26214147E-3
MEAN_MOTION_DOT = .6429E-4
MEAN_MOTION_DDOT = 0

CCSDS_OMM_VERS = 2.0
CREATION_DATE  = 
ORIGINATOR     = 

OBJECT_NAME    = SL-14 R/B
OBJECT_ID      = 1982-092B
CENTER_NAME    = EARTH
REF_FRAME      = TEME
TIME_SYSTEM    = UTC
MEAN_ELEMENT_THEORY = SGP/SGP4

EPOCH          = 2026-01-09T07:10:21.128160
MEAN_MOTION    = 14.86589017
ECCENTRICITY   = .0021379
INCLINATION    = 82.5667
RA_OF_ASC_NODE = 196.9364
ARG_OF_PERICENTER = 135.3128
MEAN_ANOMALY   = 37.9035

EPHEMERIS_TYPE = 0
CLASSIFICATION_TYPE = U
NORAD_CAT_ID   = 13553
ELEMENT_SET_NO = 999
REV_AT_EPOCH   = 32010
BSTAR          = .66798872E-4
MEAN_MOTION_DOT = .619E-5
MEAN_MOTION_DDOT = 0

CCSDS_OMM_VERS = 2.0
CREATION_DATE  = 
ORIGINATOR     = 

OBJECT_NAME    = SL-3 R/B
OBJECT_ID      = 1983-010B
CENTER_NAME    = EARTH
REF_FRAME      = TEME
TIME_SYSTEM    = UTC
MEAN_ELEMENT_THEORY = SGP/SGP4

EPOCH          = 2026-01-09T06:03:47.717568
MEAN_MOTION    = 15.44345827
ECCENTRICITY   = .00161801
INCLINATION    = 81.1034
RA_OF_ASC_NODE = 75.0145
ARG_OF_PERICENTER = 251.8944
MEAN_ANOMALY   = 108.0537

EPHEMERIS_TYPE = 0
CLASSIFICATION_TYPE = U
NORAD_CAT_ID   = 13819
ELEMENT_SET_NO = 999
REV_AT_EPOCH   = 34876
BSTAR          = .3415775E-3
MEAN_MOTION_DOT = .15865E-3
MEAN_MOTION_DDOT = 0

CCSDS_OMM_VERS = 2.0
CREATION_DATE  = 
ORIGINATOR     = 

OBJECT_NAME    = SL-3 R/B
OBJECT_ID      = 1983-075B
CENTER_NAME    = EARTH
REF_FRAME      = TEME
TIME_SYSTEM    = UTC
MEAN_ELEMENT_THEORY = SGP/SGP4

EPOCH          = 2026-01-09T06:30:16.157376
MEAN_MOTION    = 15.36816638
ECCENTRICITY   = .00245293
INCLINATION    = 97.6119
RA_OF_ASC_NODE = 11.6920
ARG_OF_PERICENTER = 83.0012
MEAN_ANOMALY   = 277.4020

EPHEMERIS_TYPE = 0
CLASSIFICATION_TYPE = U
NORAD_CAT_ID   = 14208
ELEMENT_SET_NO = 999
REV_AT_EPOCH   = 32102
BSTAR          = .36748478E-3
MEAN_MOTION_DOT = .13276E-3
MEAN_MOTION_DDOT = 0

CCSDS_OMM_VERS = 2.0
CREATION_DATE  = 
ORIGINATOR     = 

OBJECT_NAME    = COSMOS 1536
OBJECT_ID      = 1984-013A
CENTER_NAME    = EARTH
REF_FRAME      = TEME
TIME_SYSTEM    = UTC
MEAN_ELEMENT_THEORY = SGP/SGP4

EPOCH          = 2026-01-08T22:43:03.551232
MEAN_MOTION    = 15.22937857
ECCENTRICITY   = .00154148
INCLINATION    = 82.5459
RA_OF_ASC_NODE = 167.1751
ARG_OF_PERICENTER = 129.7301
MEAN_ANOMALY   = 230.5297

EPHEMERIS_TYPE = 0
CLASSIFICATION_TYPE = U
NORAD_CAT_ID   = 14699
ELEMENT_SET_NO = 999
REV_AT_EPOCH   = 26352
BSTAR          = .25786883E-3
MEAN_MOTION_DOT = .6103E-4
MEAN_MOTION_DDOT = 0

CCSDS_OMM_VERS = 2.0
CREATION_DATE  = 
ORIGINATOR     = 

OBJECT_NAME    = SL-14 R/B
OBJECT_ID      = 1984-027B
CENTER_NAME    = EARTH
REF_FRAME      = TEME
TIME_SYSTEM    = UTC
MEAN_ELEMENT_THEORY = SGP/SGP4

EPOCH          = 2026-01-09T07:12:18.383328
MEAN_MOTION    = 14.85910484
ECCENTRICITY   = .00182576
INCLINATION    = 82.5432
RA_OF_ASC_NODE = 300.7125
ARG_OF_PERICENTER = 165.2475
MEAN_ANOMALY   = 194.9279

EPHEMERIS_TYPE = 0
CLASSIFICATION_TYPE = U
NORAD_CAT_ID   = 14820
ELEMENT_SET_NO = 999
REV_AT_EPOCH   = 23881
BSTAR          = .63788502E-4
MEAN_MOTION_DOT = .582E-5
MEAN_MOTION_DDOT = 0

CCSDS_OMM_VERS = 2.0
CREATION_DATE  = 
ORIGINATOR     = 

OBJECT_NAME    = SL-8 R/B
OBJECT_ID      = 1985-006B
CENTER_NAME    = EARTH
REF_FRAME      = TEME
TIME_SYSTEM    = UTC
MEAN_ELEMENT_THEORY = SGP/SGP4

EPOCH          = 2026-01-09T07:06:42.048000
MEAN_MOTION    = 14.37742640
ECCENTRICITY   = .00196956
INCLINATION    = 74.0459
RA_OF_ASC_NODE = 10.4315
ARG_OF_PERICENTER = 297.7753
MEAN_ANOMALY   = 73.9901

EPHEMERIS_TYPE = 0
CLASSIFICATION_TYPE = U
NORAD_CAT_ID   = 15483
ELEMENT_SET_NO = 999
REV_AT_EPOCH   = 14549
BSTAR          = .11817477E-3
MEAN_MOTION_DOT = .33E-5
MEAN_MOTION_DDOT = 0

CCSDS_OMM_VERS = 2.0
CREATION_DATE  = 
ORIGINATOR     = 

OBJECT_NAME    = SL-12 R/B(2)
OBJECT_ID      = 1985-042D
CENTER_NAME    = EARTH
REF_FRAME      = TEME
TIME_SYSTEM    = UTC
MEAN_ELEMENT_THEORY = SGP/SGP4

EPOCH          = 2026-01-08T23:29:19.112352
MEAN_MOTION    = 14.21960741
ECCENTRICITY   = .00367199
INCLINATION    = 71.1064
RA_OF_ASC_NODE = 213.8757
ARG_OF_PERICENTER = 221.3594
MEAN_ANOMALY   = 243.0938

EPHEMERIS_TYPE = 0
CLASSIFICATION_TYPE = U
NORAD_CAT_ID   = 15772
ELEMENT_SET_NO = 999
REV_AT_EPOCH   = 10590
BSTAR          = .74579435E-4
MEAN_MOTION_DOT = .118E-5
MEAN_MOTION_DDOT = 0

CCSDS_OMM_VERS = 2.0
CREATION_DATE  = 
ORIGINATOR     = 

OBJECT_NAME    = SL-14 R/B
OBJECT_ID      = 1985-069B
CENTER_NAME    = EARTH
REF_FRAME      = TEME
TIME_SYSTEM    = UTC
MEAN_ELEMENT_THEORY = SGP/SGP4

EPOCH          = 2026-01-09T05:39:27.204192
MEAN_MOTION    = 14.86360755
ECCENTRICITY   = .00195885
INCLINATION    = 82.5264
RA_OF_ASC_NODE = 80.8534
ARG_OF_PERICENTER = 33.4784
MEAN_ANOMALY   = 326.7666

EPHEMERIS_TYPE = 0
CLASSIFICATION_TYPE = U
NORAD_CAT_ID   = 15945
ELEMENT_SET_NO = 999
REV_AT_EPOCH   = 16400
BSTAR          = .5760238E-4
MEAN_MOTION_DOT = .534E-5
MEAN_MOTION_DDOT = 0

CCSDS_OMM_VERS = 2.0
CREATION_DATE  = 
ORIGINATOR     = 

OBJECT_NAME    = SL-16 R/B
OBJECT_ID      = 1985-097B
CENTER_NAME    = EARTH
REF_FRAME      = TEME
TIME_SYSTEM    = UTC
MEAN_ELEMENT_THEORY = SGP/SGP4

EPOCH          = 2026-01-09T02:48:12.695040
MEAN_MOTION    = 14.16590782
ECCENTRICITY   = .00083174
INCLINATION    = 71.0030
RA_OF_ASC_NODE = 265.9687
ARG_OF_PERICENTER = 331.6705
MEAN_ANOMALY   = 140.2260

EPHEMERIS_TYPE = 0
CLASSIFICATION_TYPE = U
NORAD_CAT_ID   = 16182
ELEMENT_SET_NO = 999
REV_AT_EPOCH   = 7879
BSTAR          = .14793531E-3
MEAN_MOTION_DOT = .247E-5
MEAN_MOTION_DDOT = 0

CCSDS_OMM_VERS = 2.0
CREATION_DATE  = 
ORIGINATOR     = 

OBJECT_NAME    = SL-14 R/B
OBJECT_ID      = 1986-006B
CENTER_NAME    = EARTH
REF_FRAME      = TEME
TIME_SYSTEM    = UTC
MEAN_ELEMENT_THEORY = SGP/SGP4

EPOCH          = 2026-01-09T07:05:10.149504
MEAN_MOTION    = 14.86714961
ECCENTRICITY   = .00782035
INCLINATION    = 82.5286
RA_OF_ASC_NODE = 315.6251
ARG_OF_PERICENTER = 109.1723
MEAN_ANOMALY   = 251.7979

EPHEMERIS_TYPE = 0
CLASSIFICATION_TYPE = U
NORAD_CAT_ID   = 16496
ELEMENT_SET_NO = 999
REV_AT_EPOCH   = 14038
BSTAR          = .80963789E-4
MEAN_MOTION_DOT = .789E-5
MEAN_MOTION_DDOT = 0

CCSDS_OMM_VERS = 2.0
CREATION_DATE  = 
ORIGINATOR     = 

OBJECT_NAME    = COSMOS 1743
OBJECT_ID      = 1986-034A
CENTER_NAME    = EARTH
REF_FRAME      = TEME
TIME_SYSTEM    = UTC
MEAN_ELEMENT_THEORY = SGP/SGP4

EPOCH          = 2026-01-08T21:50:00.314304
MEAN_MOTION    = 15.54047281
ECCENTRICITY   = .00051734
INCLINATION    = 82.5355
RA_OF_ASC_NODE = 136.3350
ARG_OF_PERICENTER = 148.1659
MEAN_ANOMALY   = 211.9908

EPHEMERIS_TYPE = 0
CLASSIFICATION_TYPE = U
NORAD_CAT_ID   = 16719
ELEMENT_SET_NO = 999
REV_AT_EPOCH   = 17095
BSTAR          = .50157993E-3
MEAN_MOTION_DOT = .32603E-3
MEAN_MOTION_DDOT = 0

